[{"OBJECT_NAME":"STARLINK-5084","OBJECT_ID":"2022-177AH","EPOCH":"2025-12-12T02:02:58.418304","MEAN_MOTION":15.02538122,"ECCENTRICITY":9.715e-5,"INCLINATION":43.0019,"RA_OF_ASC_NODE":236.6609,"ARG_OF_PERICENTER":270.785,"MEAN_ANOMALY":89.2881,"EPHEMERIS_TYPE":0,"CLASSIFICATION_TYPE":"U","NORAD_CAT_ID":54851,"ELEMENT_SET_NO":999,"REV_AT_EPOCH":16392,"BSTAR":1.6056815e-5,"MEAN_MOTION_DOT":1.3e-7,"MEAN_MOTION_DDOT":0},{"OBJECT_NAME":"STARLINK-5418","OBJECT_ID":"2022-177AJ","EPOCH":"2025-12-12T01:48:35.585568","MEAN_MOTION":15.02534381,"ECCENTRICITY":0.00013408,"INCLINATION":43.004,"RA_OF_ASC_NODE":236.5791,"ARG_OF_PERICENTER":265.8409,"MEAN_ANOMALY":94.228,"EPHEMERIS_TYPE":0,"CLASSIFICATION_TYPE":"U","NORAD_CAT_ID":54852,"ELEMENT_SET_NO":999,"REV_AT_EPOCH":16392,"BSTAR":4.5455176e-5,"MEAN_MOTION_DOT":4.1e-6,"MEAN_MOTION_DDOT":0},{"OBJECT_NAME":"STARLINK-5427","OBJECT_ID":"2022-177AK","EPOCH":"2025-12-12T01:53:23.434944","MEAN_MOTION":15.02535406,"ECCENTRICITY":0.00013055,"INCLINATION":43.0033,"RA_OF_ASC_NODE":236.6107,"ARG_OF_PERICENTER":273.363,"MEAN_ANOMALY":86.7063,"EPHEMERIS_TYPE":0,"CLASSIFICATION_TYPE":"U","NORAD_CAT_ID":54853,"ELEMENT_SET_NO":999,"REV_AT_EPOCH":16392,"BSTAR":5.6601615e-5,"MEAN_MOTION_DOT":5.61e-6,"MEAN_MOTION_DDOT":0},{"OBJECT_NAME":"STARLINK-5416","OBJECT_ID":"2022-177AM","EPOCH":"2025-12-12T01:43:48.048960","MEAN_MOTION":15.02533119,"ECCENTRICITY":6.306e-5,"INCLINATION":43.0015,"RA_OF_ASC_NODE":236.5621,"ARG_OF_PERICENTER":272.3045,"MEAN_ANOMALY":87.7725,"EPHEMERIS_TYPE":0,"CLASSIFICATION_TYPE":"U","NORAD_CAT_ID":54855,"ELEMENT_SET_NO":999,"REV_AT_EPOCH":16392,"BSTAR":-4.77894e-5,"MEAN_MOTION_DOT":-8.49e-6,"MEAN_MOTION_DDOT":0},{"OBJECT_NAME":"STARLINK-5086","OBJECT_ID":"2022-177AN","EPOCH":"2025-12-12T02:50:45.839904","MEAN_MOTION":15.02525453,"ECCENTRICITY":0.00014228,"INCLINATION":43.0036,"RA_OF_ASC_NODE":236.0471,"ARG_OF_PERICENTER":264.9264,"MEAN_ANOMALY":95.1416,"EPHEMERIS_TYPE":0,"CLASSIFICATION_TYPE":"U","NORAD_CAT_ID":54856,"ELEMENT_SET_NO":999,"REV_AT_EPOCH":16393,"BSTAR":0.00021920352,"MEAN_MOTION_DOT":2.758e-5,"MEAN_MOTION_DDOT":0},{"OBJECT_NAME":"STARLINK-5078","OBJECT_ID":"2022-177AP","EPOCH":"2025-12-12T01:31:00.177600","MEAN_MOTION":15.02542997,"ECCENTRICITY":0.0001158,"INCLINATION":43.0023,"RA_OF_ASC_NODE":236.4964,"ARG_OF_PERICENTER":277.4679,"MEAN_ANOMALY":82.6032,"EPHEMERIS_TYPE":0,"CLASSIFICATION_TYPE":"U","NORAD_CAT_ID":54857,"ELEMENT_SET_NO":999,"REV_AT_EPOCH":16392,"BSTAR":7.3301454e-5,"MEAN_MOTION_DOT":7.87e-6,"MEAN_MOTION_DDOT":0},{"OBJECT_NAME":"STARLINK-5407","OBJECT_ID":"2022-177AQ","EPOCH":"2025-12-12T01:34:11.974368","MEAN_MOTION":15.02539938,"ECCENTRICITY":0.00010071,"INCLINATION":43.0016,"RA_OF_ASC_NODE":236.502,"ARG_OF_PERICENTER":278.7285,"MEAN_ANOMALY":81.3443,"EPHEMERIS_TYPE":0,"CLASSIFICATION_TYPE":"U","NORAD_CAT_ID":54858,"ELEMENT_SET_NO":999,"REV_AT_EPOCH":16392,"BSTAR":6.827278e-5,"MEAN_MOTION_DOT":7.19e-6,"MEAN_MOTION_DDOT":0},{"OBJECT_NAME":"STARLINK-5409","OBJECT_ID":"2022-177AR","EPOCH":"2025-12-12T01:19:49.665216","MEAN_MOTION":15.02535753,"ECCENTRICITY":0.00012365,"INCLINATION":43.0029,"RA_OF_ASC_NODE":236.4345,"ARG_OF_PERICENTER":270.5471,"MEAN_ANOMALY":89.5229,"EPHEMERIS_TYPE":0,"CLASSIFICATION_TYPE":"U","NORAD_CAT_ID":54859,"ELEMENT_SET_NO":999,"REV_AT_EPOCH":16392,"BSTAR":-2.8845643e-5,"MEAN_MOTION_DOT":-5.93e-6,"MEAN_MOTION_DDOT":0},{"OBJECT_NAME":"STARLINK-5406","OBJECT_ID":"2022-177AS","EPOCH":"2025-12-12T02:47:33.537696","MEAN_MOTION":15.02530261,"ECCENTRICITY":0.00014964,"INCLINATION":43.0029,"RA_OF_ASC_NODE":236.0281,"ARG_OF_PERICENTER":260.7634,"MEAN_ANOMALY":99.3039,"EPHEMERIS_TYPE":0,"CLASSIFICATION_TYPE":"U","NORAD_CAT_ID":54860,"ELEMENT_SET_NO":999,"REV_AT_EPOCH":16393,"BSTAR":0.00018183186,"MEAN_MOTION_DOT":2.253e-5,"MEAN_MOTION_DDOT":0},{"OBJECT_NAME":"STARLINK-5400","OBJECT_ID":"2022-177AT","EPOCH":"2025-12-12T01:35:48.576480","MEAN_MOTION":15.02539396,"ECCENTRICITY":0.00011491,"INCLINATION":43.0047,"RA_OF_ASC_NODE":236.5186,"ARG_OF_PERICENTER":286.5089,"MEAN_ANOMALY":73.5627,"EPHEMERIS_TYPE":0,"CLASSIFICATION_TYPE":"U","NORAD_CAT_ID":54861,"ELEMENT_SET_NO":999,"REV_AT_EPOCH":16392,"BSTAR":-0.00013298371,"MEAN_MOTION_DOT":-2.0e-5,"MEAN_MOTION_DDOT":0},{"OBJECT_NAME":"STARLINK-5403","OBJECT_ID":"2022-177AU","EPOCH":"2025-12-12T02:09:21.667104","MEAN_MOTION":15.02539699,"ECCENTRICITY":0.00010053,"INCLINATION":43.0024,"RA_OF_ASC_NODE":236.7035,"ARG_OF_PERICENTER":273.9742,"MEAN_ANOMALY":86.0985,"EPHEMERIS_TYPE":0,"CLASSIFICATION_TYPE":"U","NORAD_CAT_ID":54862,"ELEMENT_SET_NO":999,"REV_AT_EPOCH":16392,"BSTAR":1.1246587e-5,"MEAN_MOTION_DOT":-5.2e-7,"MEAN_MOTION_DDOT":0},{"OBJECT_NAME":"STARLINK-5405","OBJECT_ID":"2022-177AV","EPOCH":"2025-12-12T03:00:23.605344","MEAN_MOTION":15.02512209,"ECCENTRICITY":6.184e-5,"INCLINATION":43.0003,"RA_OF_ASC_NODE":236.0985,"ARG_OF_PERICENTER":331.7803,"MEAN_ANOMALY":28.3006,"EPHEMERIS_TYPE":0,"CLASSIFICATION_TYPE":"U","NORAD_CAT_ID":54863,"ELEMENT_SET_NO":999,"REV_AT_EPOCH":16393,"BSTAR":-0.00019457809,"MEAN_MOTION_DOT":-2.829e-5,"MEAN_MOTION_DDOT":0},{"OBJECT_NAME":"STARLINK-5359","OBJECT_ID":"2022-177AW","EPOCH":"2025-12-12T01:07:02.204256","MEAN_MOTION":15.02536613,"ECCENTRICITY":9.183e-5,"INCLINATION":43.0014,"RA_OF_ASC_NODE":236.361,"ARG_OF_PERICENTER":283.9328,"MEAN_ANOMALY":76.1412,"EPHEMERIS_TYPE":0,"CLASSIFICATION_TYPE":"U","NORAD_CAT_ID":54864,"ELEMENT_SET_NO":999,"REV_AT_EPOCH":16392,"BSTAR":-1.080588e-6,"MEAN_MOTION_DOT":-2.18e-6,"MEAN_MOTION_DDOT":0},{"OBJECT_NAME":"STARLINK-5411","OBJECT_ID":"2022-177AX","EPOCH":"2025-12-12T03:05:08.438496","MEAN_MOTION":15.02535543,"ECCENTRICITY":0.00013282,"INCLINATION":43.0035,"RA_OF_ASC_NODE":236.1228,"ARG_OF_PERICENTER":262.2338,"MEAN_ANOMALY":97.8354,"EPHEMERIS_TYPE":0,"CLASSIFICATION_TYPE":"U","NORAD_CAT_ID":54865,"ELEMENT_SET_NO":999,"REV_AT_EPOCH":16393,"BSTAR":5.17279e-5,"MEAN_MOTION_DOT":4.95e-6,"MEAN_MOTION_DDOT":0},{"OBJECT_NAME":"STARLINK-5398","OBJECT_ID":"2022-177AY","EPOCH":"2025-12-12T00:52:39.110592","MEAN_MOTION":15.02538023,"ECCENTRICITY":0.00015877,"INCLINATION":43.0041,"RA_OF_ASC_NODE":236.2869,"ARG_OF_PERICENTER":254.0431,"MEAN_ANOMALY":106.0236,"EPHEMERIS_TYPE":0,"CLASSIFICATION_TYPE":"U","NORAD_CAT_ID":54866,"ELEMENT_SET_NO":999,"REV_AT_EPOCH":16392,"BSTAR":-3.9824898e-5,"MEAN_MOTION_DOT":-7.42e-6,"MEAN_MOTION_DDOT":0},{"OBJECT_NAME":"STARLINK-5396","OBJECT_ID":"2022-177AZ","EPOCH":"2025-12-12T02:45:57.220704","MEAN_MOTION":15.02540867,"ECCENTRICITY":0.00013321,"INCLINATION":43.0028,"RA_OF_ASC_NODE":236.018,"ARG_OF_PERICENTER":265.7684,"MEAN_ANOMALY":94.3006,"EPHEMERIS_TYPE":0,"CLASSIFICATION_TYPE":"U","NORAD_CAT_ID":54867,"ELEMENT_SET_NO":999,"REV_AT_EPOCH":16393,"BSTAR":0.00015568517,"MEAN_MOTION_DOT":1.9e-5,"MEAN_MOTION_DDOT":0}]
