STARLINK-5084           
1 54851U 22177AH  25346.08539836  .00000013  00000+0  16057-4 0  9990
2 54851  43.0019 236.6609 0000971 270.7850  89.2881 15.02538122163926
STARLINK-5418           
1 54852U 22177AJ  25346.07541187  .00000410  00000+0  45455-4 0  9997
2 54852  43.0040 236.5791 0001340 265.8409  94.2280 15.02534381163920
STARLINK-5427           
1 54853U 22177AK  25346.07874346  .00000561  00000+0  56602-4 0  9997
2 54853  43.0033 236.6107 0001305 273.3630  86.7063 15.02535406163920
STARLINK-5416           
1 54855U 22177AM  25346.07208390 -.00000849  00000+0 -47789-4 0  9996
2 54855  43.0015 236.5621 0000630 272.3045  87.7725 15.02533119163926
STARLINK-5086           
1 54856U 22177AN  25346.11858611  .00002758  00000+0  21920-3 0  9996
2 54856  43.0036 236.0471 0001422 264.9264  95.1416 15.02525453163931
STARLINK-5078           
1 54857U 22177AP  25346.06319650  .00000787  00000+0  73301-4 0  9997
2 54857  43.0023 236.4964 0001158 277.4679  82.6032 15.02542997163920
STARLINK-5407           
1 54858U 22177AQ  25346.06541637  .00000719  00000+0  68273-4 0  9997
2 54858  43.0016 236.5020 0001007 278.7285  81.3443 15.02539938163920
STARLINK-5409           
1 54859U 22177AR  25346.05543594 -.00000593  00000+0 -28846-4 0  9995
2 54859  43.0029 236.4345 0001236 270.5471  89.5229 15.02535753163928
STARLINK-5406           
1 54860U 22177AS  25346.11636039  .00002253  00000+0  18183-3 0  9996
2 54860  43.0029 236.0281 0001496 260.7634  99.3039 15.02530261163933
STARLINK-5400           
1 54861U 22177AT  25346.06653445 -.00002000  00000+0 -13298-3 0  9995
2 54861  43.0047 236.5186 0001149 286.5089  73.5627 15.02539396163922
STARLINK-5403           
1 54862U 22177AU  25346.08983411 -.00000052  00000+0  11247-4 0  9994
2 54862  43.0024 236.7035 0001005 273.9742  86.0985 15.02539699163922
STARLINK-5405           
1 54863U 22177AV  25346.12527321 -.00002829  00000+0 -19458-3 0  9990
2 54863  43.0003 236.0985 0000618 331.7803  28.3006 15.02512209163939
STARLINK-5359           
1 54864U 22177AW  25346.04655329 -.00000218  00000+0 -10806-5 0  9992
2 54864  43.0014 236.3610 0000918 283.9328  76.1412 15.02536613163929
STARLINK-5411           
1 54865U 22177AX  25346.12856989  .00000495  00000+0  51728-4 0  9999
2 54865  43.0035 236.1228 0001328 262.2338  97.8354 15.02535543163930
STARLINK-5398           
1 54866U 22177AY  25346.03656378 -.00000742  00000+0 -39825-4 0  9991
2 54866  43.0041 236.2869 0001587 254.0431 106.0236 15.02538023163927
STARLINK-5396           
1 54867U 22177AZ  25346.11524561  .00001900  00000+0  15569-3 0  9992
2 54867  43.0028 236.0180 0001332 265.7684  94.3006 15.02540867163938
